{
  "norad_id": 66699,
  "name": "IRIDE FM5",
  "history": [
    {
      "epoch": "2026-03-28T22:07:59.145312Z",
      "apogee_km": 510.41773712496706,
      "perigee_km": 506.8173418517217,
      "latitude_deg": -2.4453291719884625e-05,
      "longitude_deg": 4.502254483741331,
      "height_km": 510.85914046875894,
      "semi_major_axis_km": 6886.754539488344,
      "eccentricity": 0.0002614,
      "inclination_deg": 97.4246,
      "raan_deg": 162.8344,
      "arg_perigee_deg": 298.1684,
      "mean_anomaly_deg": 61.9286,
      "mean_motion_rev_day": 15.19080735
    }
  ]
}