{"fetched_at":"2026-03-29T16:36:15Z","count":15609,"tles":[{"name":"IRIDE FM5","line1":"1 66699U 25276AK  26087.92221233  .00010695  00000+0  51274-3 0  9997","line2":"2 66699  97.4246 162.8344 0002614 298.1684  61.9286 15.19080735 18234","category":"Other"}]}